STARLINK-37975          
1 69707U 26147D   26194.52107605  .00346942  00000+0  17334-2 0  9994
2 69707  97.2840 230.8164 0001659  60.0033 300.1400 15.80911517  3591
STARLINK-37972          
1 69708U 26147E   26194.52032244  .00231117  00000+0  11728-2 0  9999
2 69708  97.2835 230.8173 0001045  73.3166 286.8217 15.80869435  3596
STARLINK-37963          
1 69709U 26147F   26194.07644678  .00214593  00000+0  10895-2 0  9993
2 69709  97.2834 230.3484 0000386  76.4176 283.7135 15.80899599  3520
STARLINK-37969          
1 69710U 26147G   26194.07569580  .00189256  00000+0  96405-3 0  9992
2 69710  97.2833 230.3502 0001375 120.6066 239.5338 15.80894466  3523
STARLINK-37956          
1 69711U 26147H   26194.07494500  .00165002  00000+0  84334-3 0  9993
2 69711  97.2836 230.3520 0001189 106.0928 254.0471 15.80884386  3525
STARLINK-38043          
1 69712U 26147J   26194.07419490  .00375187  00000+0  18611-2 0  9990
2 69712  97.2837 230.3525 0001532 124.4004 235.7409 15.80996319  3520
STARLINK-38020          
1 69713U 26147K   26194.07344206  .00183409  00000+0  93430-3 0  9990
2 69713  97.2834 230.3535 0001844 120.1791 239.9660 15.80908550  3526
STARLINK-38059          
1 69714U 26147L   26194.07269024  .00236164  00000+0  11954-2 0  9992
2 69714  97.2835 230.3547 0001261  96.6243 263.5169 15.80911690  3529
STARLINK-38061          
1 69715U 26147M   26193.56553900  .00200648  00000+0  10183-2 0  9996
2 69715  97.2850 229.8216 0000910  70.5343 289.6024 15.80946327  3440
STARLINK-38060          
1 69716U 26147N   26194.07118872  .00203365  00000+0  10349-2 0  9992
2 69716  97.2840 230.3572 0000713  66.2004 293.9339 15.80878954  3525
STARLINK-38040          
1 69717U 26147P   26194.45026179  .00257679  00000+0  13079-2 0  9993
2 69717  97.2847 230.7610 0003012  46.8440 313.3079 15.80792430  3581
STARLINK-37989          
1 69718U 26147Q   26193.33335648 -.00098494  00000+0 -51827-3 0  9998
2 69718  97.2834 229.5802 0001325  94.5508  37.9655 15.80858469  3378
STARLINK-38039          
1 69719U 26147R   26194.50001156  .00077880  00000+0  40423-3 0  9997
2 69719  97.2831 230.8152 0001069 109.3837 182.2686 15.80787918  3563
STARLINK-38003          
1 69720U 26147S   26194.19478904  .00316415  00000+0  15880-2 0  9991
2 69720  97.2826 230.4944 0001604 356.6157   3.5100 15.80890682  3548
STARLINK-38014          
1 69721U 26147T   26194.44725595  .00183504  00000+0  93999-3 0  9990
2 69721  97.2851 230.7647 0003508  49.0182 311.1389 15.80781951  3585
STARLINK-37915          
1 69722U 26147U   26194.00337906  .00226889  00000+0  11491-2 0  9998
2 69722  97.2823 230.2959 0001182 108.9793 251.1604 15.80923484  3510
STARLINK-38007          
1 69723U 26147V   26194.50001156  .00102074  00000+0  52834-3 0  9995
2 69723  97.2829 230.8142 0001188 100.2306 190.6389 15.80777952  3567
STARLINK-38008          
1 69724U 26147W   26194.06517632  .00410418  00000+0  20246-2 0  9993
2 69724  97.2825 230.3649 0001850 136.2992 223.8424 15.81027502  3522
STARLINK-38021          
1 69725U 26147X   26194.06442397  .00212513  00000+0  10801-2 0  9991
2 69725  97.2838 230.3662 0000872 105.6071 254.5293 15.80881820  3528
STARLINK-38015          
1 69726U 26147Y   26194.06367468  .00405310  00000+0  20017-2 0  9996
2 69726  97.2826 230.3666 0001538 146.1115 214.0252 15.81014941  3528
STARLINK-38010          
1 69727U 26147Z   26194.52355507  .00148294  00000+0  97819-3 0  9999
2 69727  97.2841 230.8129 0001015  70.4671 289.6703 15.75183968  3596
SXM-11                  
1 69728U 26148A   26193.61042086 -.00000004  00000+0  00000+0 0  9994
2 69728   0.1203 265.0138 0006024 283.4113 201.3552  1.00371494   297
HAIYANG-2E              
1 69737U 26149A   26194.49067354 -.00000091  00000+0 -45339-4 0  9993
2 69737  99.3454 201.4382 0001579  93.7459 266.3874 13.79314737  1593
STARLINK-38033          
1 69739U 26150A   26194.50203487  .00262932  00000+0  13260-2 0  9996
2 69739  97.2829  32.7665 0001558 118.5728 241.5697 15.80921928  3050
STARLINK-38076          
1 69740U 26150B   26194.50001156  .00025078  00000+0  16880-3 0  9997
2 69740  97.2828  32.7336 0001113  65.1817 211.9726 15.75151046  3020
STARLINK-38074          
1 69741U 26150C   26194.49945406  .00261402  00000+0  13186-2 0  9999
2 69741  97.2824  32.7694 0001408 108.6654 251.4767 15.80921314  3059
STARLINK-38041          
1 69742U 26150D   26194.49875987  .00270874  00000+0  13648-2 0  9992
2 69742  97.2821  32.7707 0001264 114.7439 245.3961 15.80922469  3051
STARLINK-38087          
1 69743U 26150E   26194.49794256  .00300659  00000+0  15087-2 0  9996
2 69743  97.2821  32.7717 0000953 122.6306 237.5054 15.80934901  3058
STARLINK-38078          
1 69744U 26150F   26194.49719323  .00214463  00000+0  10893-2 0  9996
2 69744  97.2827  32.7724 0001311 105.9616 254.1797 15.80891311  3056
