OBJECT_NAME,OBJECT_ID,EPOCH,MEAN_MOTION,ECCENTRICITY,INCLINATION,RA_OF_ASC_NODE,ARG_OF_PERICENTER,MEAN_ANOMALY,EPHEMERIS_TYPE,CLASSIFICATION_TYPE,NORAD_CAT_ID,ELEMENT_SET_NO,REV_AT_EPOCH,BSTAR,MEAN_MOTION_DOT,MEAN_MOTION_DDOT
STARLINK-37975,2026-147D,2026-07-13T12:30:20.970720,15.80911517,.0001659,97.2840,230.8164,60.0033,300.1400,0,U,69707,999,359,.17334E-2,.346942E-2,0
STARLINK-37972,2026-147E,2026-07-13T12:29:15.858816,15.80869435,.0001045,97.2835,230.8173,73.3166,286.8217,0,U,69708,999,359,.11728E-2,.231117E-2,0
STARLINK-37963,2026-147F,2026-07-13T01:50:05.001792,15.80899599,.0000386,97.2834,230.3484,76.4176,283.7135,0,U,69709,999,352,.10895431E-2,.214593E-2,0
STARLINK-37969,2026-147G,2026-07-13T01:49:00.117120,15.80894466,.00013757,97.2833,230.3502,120.6066,239.5338,0,U,69710,999,352,.96404753E-3,.189256E-2,0
STARLINK-37956,2026-147H,2026-07-13T01:47:55.248000,15.80884386,.00011897,97.2836,230.3520,106.0928,254.0471,0,U,69711,999,352,.84333963E-3,.165002E-2,0
STARLINK-38043,2026-147J,2026-07-13T01:46:50.439360,15.80996319,.00015327,97.2837,230.3525,124.4004,235.7409,0,U,69712,999,352,.18610896E-2,.375187E-2,0
STARLINK-38020,2026-147K,2026-07-13T01:45:45.393984,15.80908550,.00018444,97.2834,230.3535,120.1791,239.9660,0,U,69713,999,352,.93429653E-3,.183409E-2,0
STARLINK-38059,2026-147L,2026-07-13T01:44:40.436736,15.80911690,.00012613,97.2835,230.3547,96.6243,263.5169,0,U,69714,999,352,.11953743E-2,.236164E-2,0
STARLINK-38061,2026-147M,2026-07-12T13:34:22.569600,15.80946327,.000091,97.2850,229.8216,70.5343,289.6024,0,U,69715,999,344,.10183E-2,.200648E-2,0
STARLINK-38060,2026-147N,2026-07-13T01:42:30.705408,15.80878954,.00007134,97.2840,230.3572,66.2004,293.9339,0,U,69716,999,352,.10349062E-2,.203365E-2,0
STARLINK-38040,2026-147P,2026-07-13T10:48:22.618656,15.80792430,.0003012,97.2847,230.7610,46.8440,313.3079,0,U,69717,999,358,.13079E-2,.257679E-2,0
STARLINK-37989,2026-147Q,2026-07-12T08:00:01.999872,15.80858469,.00013257,97.2834,229.5802,94.5508,37.9655,0,U,69718,999,337,-.51826548E-3,-.98494E-3,0
STARLINK-38039,2026-147R,2026-07-13T12:00:00.998784,15.80787918,.0001069,97.2831,230.8152,109.3837,182.2686,0,U,69719,999,356,.40423E-3,.7788E-3,0
STARLINK-38003,2026-147S,2026-07-13T04:40:29.773056,15.80890682,.0001604,97.2826,230.4944,356.6157,3.5100,0,U,69720,999,354,.1588E-2,.316415E-2,0
STARLINK-38014,2026-147T,2026-07-13T10:44:02.914080,15.80781951,.0003508,97.2851,230.7647,49.0182,311.1389,0,U,69721,999,358,.93999E-3,.183504E-2,0
STARLINK-37915,2026-147U,2026-07-13T00:04:51.950784,15.80923484,.0001182,97.2823,230.2959,108.9793,251.1604,0,U,69722,999,351,.11490678E-2,.226889E-2,0
STARLINK-38007,2026-147V,2026-07-13T12:00:00.998784,15.80777952,.0001188,97.2829,230.8142,100.2306,190.6389,0,U,69723,999,356,.52834E-3,.102074E-2,0
STARLINK-38008,2026-147W,2026-07-13T01:33:51.234048,15.81027502,.00018501,97.2825,230.3649,136.2992,223.8424,0,U,69724,999,352,.20246099E-2,.410418E-2,0
STARLINK-38021,2026-147X,2026-07-13T01:32:46.231008,15.80881820,.0000872,97.2838,230.3662,105.6071,254.5293,0,U,69725,999,352,.10801443E-2,.212513E-2,0
STARLINK-38015,2026-147Y,2026-07-13T01:31:41.492352,15.81014941,.00015389,97.2826,230.3666,146.1115,214.0252,0,U,69726,999,352,.20017305E-2,.40531E-2,0
STARLINK-38010,2026-147Z,2026-07-13T12:33:55.158048,15.75183968,.0001015,97.2841,230.8129,70.4671,289.6703,0,U,69727,999,359,.97819E-3,.148294E-2,0
SXM-11,2026-148A,2026-07-12T14:39:00.362304,1.00371494,.0006024,0.1203,265.0138,283.4113,201.3552,0,U,69728,999,29,0,-.4E-7,0
HAIYANG-2E,2026-149A,2026-07-13T11:46:34.193856,13.79314737,.0001579,99.3454,201.4382,93.7459,266.3874,0,U,69737,999,159,-.45339E-4,-.91E-6,0
STARLINK-38033,2026-150A,2026-07-13T12:02:55.812768,15.80921928,.0001558,97.2829,32.7665,118.5728,241.5697,0,U,69739,999,305,.1326E-2,.262932E-2,0
STARLINK-38076,2026-150B,2026-07-13T12:00:00.998784,15.75151046,.0001113,97.2828,32.7336,65.1817,211.9726,0,U,69740,999,302,.1688E-3,.25078E-3,0
STARLINK-38074,2026-150C,2026-07-13T11:59:12.830784,15.80921314,.0001408,97.2824,32.7694,108.6654,251.4767,0,U,69741,999,305,.13186E-2,.261402E-2,0
STARLINK-38041,2026-150D,2026-07-13T11:58:12.852768,15.80922469,.0001264,97.2821,32.7707,114.7439,245.3961,0,U,69742,999,305,.13648E-2,.270874E-2,0
STARLINK-38087,2026-150E,2026-07-13T11:57:02.237184,15.80934901,.0000953,97.2821,32.7717,122.6306,237.5054,0,U,69743,999,305,.15087E-2,.300659E-2,0
STARLINK-38078,2026-150F,2026-07-13T11:55:57.495072,15.80891311,.0001311,97.2827,32.7724,105.9616,254.1797,0,U,69744,999,305,.10893E-2,.214463E-2,0
